NORAD_CAT_ID,OBJECT_NAME,OBJECT_TYPE,EPOCH,MEAN_MOTION,ECCENTRICITY,INCLINATION,RA_OF_ASC_NODE,ARG_OF_PERICENTER,MEAN_ANOMALY,BSTAR,MEAN_MOTION_DOT,MEAN_MOTION_DDOT,TLE_LINE0,TLE_LINE1,TLE_LINE2,SEMIMAJOR_AXIS,PERIOD,APOGEE,PERIGEE,DECAYED
55283.0,STARLINK-5317,PAYLOAD,2024-03-16 09:21:12,14.98330877,0.0002963,69.9992,68.1094,270.3563,89.7256,2.1461e-05,1.63e-06,0.0,0 STARLINK-5317,1 55283U 23010Q   24076.38973255  .00000163  00000-0  21461-4 0  9998,2 55283  69.9992  68.1094 0002963 270.3563  89.7256 14.98330877 64134,6950.19,96.107,574.115,569.996,0.0
55283.0,STARLINK-5317,PAYLOAD,2024-03-17 09:23:13,14.98332679,0.0002974,69.9994,65.5849,267.0639,93.018,7.5856e-05,8.12e-06,0.0,0 STARLINK-5317,1 55283U 23010Q   24077.39112905  .00000812  00000-0  75856-4 0  9995,2 55283  69.9994  65.5849 0002974 267.0639  93.0180 14.98332679 64286,6950.185,96.107,574.117,569.983,0.0
55283.0,STARLINK-5317,PAYLOAD,2024-03-18 09:25:14,14.98334334,0.0002875,69.9998,63.06,266.5708,93.5122,5.8617e-05,6.07e-06,0.0,0 STARLINK-5317,1 55283U 23010Q   24078.39252646  .00000607  00000-0  58617-4 0  9991,2 55283  69.9998  63.0600 0002875 266.5708  93.5122 14.98334334 64437,6950.179,96.107,574.043,570.046,0.0
55283.0,STARLINK-5317,PAYLOAD,2024-03-18 22:14:19,14.98331364,0.000273,70.0002,61.7138,263.5632,96.5216,4.0219e-07,-8.8e-07,0.0,0 STARLINK-5317,1 55283U 23010Q   24078.92660891 -.00000088  00000-0  40219-6 0  9990,2 55283  70.0002  61.7138 0002730 263.5632  96.5216 14.98331364 64819,6950.189,96.107,573.951,570.156,0.0
55283.0,STARLINK-5317,PAYLOAD,2024-03-19 07:51:07,14.98332908,0.0002714,70.0003,60.7039,263.0494,97.0357,1.9188e-05,1.36e-06,0.0,0 STARLINK-5317,1 55283U 23010Q   24079.32716718  .00000136  00000-0  19188-4 0  9997,2 55283  70.0003  60.7039 0002714 263.0494  97.0357 14.98332908 64875,6950.184,96.107,573.935,570.163,0.0
55283.0,STARLINK-5317,PAYLOAD,2024-03-19 22:16:19,14.98334748,0.000264,70.0007,59.1891,261.6719,98.4141,3.4924e-05,3.24e-06,0.0,0 STARLINK-5317,1 55283U 23010Q   24079.92800400  .00000324  00000-0  34924-4 0  9999,2 55283  70.0007  59.1891 0002640 261.6719  98.4141 14.98334748 64666,6950.178,96.107,573.878,570.208,0.0
55283.0,STARLINK-5317,PAYLOAD,2024-03-20 07:53:07,14.98335992,0.0002777,70.0003,58.1788,266.3722,93.712,3.5339e-05,3.29e-06,0.0,0 STARLINK-5317,1 55283U 23010Q   24080.32856236  .00000329  00000-0  35339-4 0  9999,2 55283  70.0003  58.1788 0002777 266.3722  93.7120 14.98335992 65021,6950.174,96.107,573.969,570.109,0.0
55283.0,STARLINK-5317,PAYLOAD,2024-03-21 04:42:53,14.98326413,0.0002807,70.0006,55.9904,266.2037,93.8801,-1.1293e-05,-2.28e-06,0.0,0 STARLINK-5317,1 55283U 23010Q   24081.19644974 -.00000228  00000-0 -11293-4 0  9992,2 55283  70.0006  55.9904 0002807 266.2037  93.8801 14.98326413 64856,6950.204,96.107,574.02,570.118,0.0
55283.0,STARLINK-5317,PAYLOAD,2024-03-21 07:55:09,14.9832688,0.0003082,70.0004,55.6535,269.5972,90.4834,-4.1037e-05,-5.83e-06,0.0,0 STARLINK-5317,1 55283U 23010Q   24081.32997043 -.00000583  00000-0 -41037-4 0  9998,2 55283  70.0004  55.6535 0003082 269.5972  90.4834 14.98326880 65174,6950.203,96.107,574.21,569.925,0.0
55283.0,STARLINK-5317,PAYLOAD,2024-03-21 22:20:21,14.98331735,0.0002919,70.0006,54.1387,264.3894,95.6932,3.1088e-05,2.78e-06,0.0,0 STARLINK-5317,1 55283U 23010Q   24081.93080549  .00000278  00000-0  31088-4 0  9993,2 55283  70.0006  54.1387 0002919 264.3894  95.6932 14.98331735 65260,6950.188,96.107,574.081,570.024,0.0
55283.0,STARLINK-5317,PAYLOAD,2024-03-22 04:44:53,14.98335561,0.0002861,70.0004,53.4646,261.8772,98.2063,6.87e-05,7.27e-06,0.0,0 STARLINK-5317,1 55283U 23010Q   24082.19784161  .00000727  00000-0  68700-4 0  9993,2 55283  70.0004  53.4646 0002861 261.8772  98.2063 14.98335561 65008,6950.176,96.107,574.029,570.052,0.0
55283.0,STARLINK-5317,PAYLOAD,2024-03-22 07:57:09,14.98340668,0.0002905,70.0006,53.1285,265.3243,94.7584,0.00010008,1.102e-05,0.0,0 STARLINK-5317,1 55283U 23010Q   24082.33135712  .00001102  00000-0  10008-3 0  9996,2 55283  70.0006  53.1285 0002905 265.3243  94.7584 14.98340668 65325,6950.16,96.106,574.044,570.006,0.0
55283.0,STARLINK-5317,PAYLOAD,2024-03-22 20:46:14,14.98323169,0.0002363,70.0026,51.7834,273.6663,86.4225,0.00017639,2.012e-05,0.0,0 STARLINK-5317,1 55283U 23010Q   24082.86544616  .00002012  00000-0  17639-3 0  9999,2 55283  70.0026  51.7834 0002363 273.6663  86.4225 14.98323169 65100,6950.214,96.107,573.721,570.437,0.0
55283.0,STARLINK-5317,PAYLOAD,2024-03-22 22:22:22,14.98316716,0.0002441,70.0027,51.6128,276.3467,83.7414,0.00022847,2.633e-05,0.0,0 STARLINK-5317,1 55283U 23010Q   24082.93220863  .00002633  00000-0  22847-3 0  9998,2 55283  70.0027  51.6128 0002441 276.3467  83.7414 14.98316716 65419,6950.234,96.108,573.796,570.402,0.0
55283.0,STARLINK-5317,PAYLOAD,2024-03-23 04:46:55,14.98321034,0.000302,70.0008,50.9405,267.7497,92.3316,-2.5323e-05,-3.95e-06,0.0,0 STARLINK-5317,1 55283U 23010Q   24083.19925433 -.00000395  00000-0 -25323-4 0  9990,2 55283  70.0008  50.9405 0003020 267.7497  92.3316 14.98321034 65156,6950.221,96.108,574.185,569.987,0.0
55283.0,STARLINK-5317,PAYLOAD,2024-03-23 20:48:15,14.9833305,0.0002969,70.0007,49.2574,266.3437,93.7383,-2.1157e-05,-3.45e-06,0.0,0 STARLINK-5317,1 55283U 23010Q   24083.86684812 -.00000345  00000-0 -21157-4 0  9993,2 55283  70.0007  49.2574 0002969 266.3437  93.7383 14.98333050 65254,6950.183,96.107,574.112,569.985,0.0
55283.0,STARLINK-5317,PAYLOAD,2024-03-23 22:24:23,14.9833604,0.0003026,70.0003,49.0925,261.1054,98.9763,-5.1025e-05,-7.02e-06,0.0,0 STARLINK-5317,1 55283U 23010Q   24083.93360715 -.00000702  00000-0 -51025-4 0  9998,2 55283  70.0003  49.0925 0003026 261.1054  98.9763 14.98336040 65566,6950.174,96.107,574.142,569.936,0.0
55283.0,STARLINK-5317,PAYLOAD,2024-03-24 04:48:54,14.98344877,0.0002692,70.0012,48.4168,260.2658,99.8197,0.00011824,1.319e-05,0.0,0 STARLINK-5317,1 55283U 23010Q   24084.20063561  .00001319  00000-0  11824-3 0  9993,2 55283  70.0012  48.4168 0002692 260.2658  99.8197 14.98344877 65306,6950.147,96.106,573.883,570.141,0.0
55283.0,STARLINK-5317,PAYLOAD,2024-03-24 08:01:10,14.98348404,0.0002561,70.0012,48.0795,260.6295,99.4574,0.00024097,2.785e-05,0.0,0 STARLINK-5317,1 55283U 23010Q   24084.33414967  .00002785  00000-0  24097-3 0  9991,2 55283  70.0012  48.0795 0002561 260.6295  99.4574 14.98348404 65624,6950.136,96.106,573.781,570.221,0.0
55283.0,STARLINK-5317,PAYLOAD,2024-03-24 20:50:17,14.98319393,0.0003148,70.0008,46.7324,260.2887,99.7916,4.4788e-05,4.41e-06,0.0,0 STARLINK-5317,1 55283U 23010Q   24084.86825451  .00000441  00000-0  44788-4 0  9990,2 55283  70.0008  46.7324 0003148 260.2887  99.7916 14.98319393 65401,6950.226,96.108,574.279,569.903,0.0
55283.0,STARLINK-5317,PAYLOAD,2024-03-24 22:26:25,14.98322772,0.0002955,70.0008,46.5645,255.6992,104.3839,8.3011e-05,8.97e-06,0.0,0 STARLINK-5317,1 55283U 23010Q   24084.93501200  .00000897  00000-0  83011-4 0  9998,2 55283  70.0008  46.5645 0002955 255.6992 104.3839 14.98322772 65711,6950.215,96.107,574.134,570.026,0.0
55283.0,STARLINK-5317,PAYLOAD,2024-03-25 14:27:45,14.98338947,0.0002807,70.0014,44.8808,261.031,99.0532,-0.00024534,-3.02e-05,0.0,0 STARLINK-5317,1 55283U 23010Q   24085.60261026 -.00003020  00000-0 -24534-3 0  9999,2 55283  70.0014  44.8808 0002807 261.0310  99.0532 14.98338947 65510,6950.165,96.106,573.981,570.079,0.0
55283.0,STARLINK-5317,PAYLOAD,2024-03-25 22:28:26,14.98329273,0.0002517,70.0014,44.0394,252.872,107.2164,-0.00012267,-1.556e-05,0.0,0 STARLINK-5317,1 55283U 23010Q   24085.93641763 -.00001556  00000-0 -12267-3 0  9997,2 55283  70.0014  44.0394 0002517 252.8720 107.2164 14.98329273 65866,6950.195,96.107,573.81,570.311,0.0
55283.0,STARLINK-5317,PAYLOAD,2024-03-26 04:52:58,14.9832667,0.0002402,70.0014,43.3659,244.3836,115.7075,-0.00013141,-1.66e-05,0.0,0 STARLINK-5317,1 55283U 23010Q   24086.20345962 -.00001660  00000-0 -13141-3 0  9998,2 55283  70.0014  43.3659 0002402 244.3836 115.7075 14.98326670 65604,6950.203,96.107,573.738,570.399,0.0
55283.0,STARLINK-5317,PAYLOAD,2024-03-26 08:05:14,14.98332367,0.0002627,70.0016,43.029,253.0195,107.0676,-0.00013903,-1.751e-05,0.0,0 STARLINK-5317,1 55283U 23010Q   24086.33697646 -.00001751  00000-0 -13903-3 0  9998,2 55283  70.0016  43.0290 0002627 253.0195 107.0676 14.98332367 65924,6950.186,96.107,573.876,570.225,0.0
55283.0,STARLINK-5317,PAYLOAD,2024-03-26 22:30:26,14.98333985,0.0002916,70.0015,41.5143,256.5609,103.5226,0.00018,2.056e-05,0.0,0 STARLINK-5317,1 55283U 23010Q   24086.93780969  .00002056  00000-0  18000-3 0  9995,2 55283  70.0015  41.5143 0002916 256.5609 103.5226 14.98333985 66012,6950.181,96.107,574.072,570.019,0.0
55283.0,STARLINK-5317,PAYLOAD,2024-03-27 04:54:59,14.98326223,0.0002827,70.0015,40.841,253.5548,106.5301,0.00051027,6e-05,0.0,0 STARLINK-5317,1 55283U 23010Q   24087.20485049  .00006000  00000-0  51027-3 0  9996,2 55283  70.0015  40.8410 0002827 253.5548 106.5301 14.98326223 65755,6950.205,96.107,574.034,570.105,0.0
55283.0,STARLINK-5317,PAYLOAD,2024-03-27 06:31:06,14.98341362,0.0002896,70.0016,40.6729,257.1714,102.9121,0.00026908,3.12e-05,0.0,0 STARLINK-5317,1 55283U 23010Q   24087.27160431  .00003120  00000-0  26908-3 0  9998,2 55283  70.0016  40.6729 0002896 257.1714 102.9121 14.98341362 65760,6950.158,96.106,574.036,570.01,0.0
55283.0,STARLINK-5317,PAYLOAD,2024-03-27 14:31:47,14.98336496,0.0002533,70.0021,39.832,260.7774,99.3098,0.00019097,2.187e-05,0.0,0 STARLINK-5317,1 55283U 23010Q   24087.60540853  .00002187  00000-0  19097-3 0  9998,2 55283  70.0021  39.8320 0002533 260.7774  99.3098 14.98336496 66111,6950.173,96.107,573.798,570.277,0.0
55283.0,STARLINK-5317,PAYLOAD,2024-03-27 20:56:19,14.98329967,0.0002494,70.0027,39.1593,261.2552,98.8324,0.00026259,3.042e-05,0.0,0 STARLINK-5317,1 55283U 23010Q   24087.87245183  .00003042  00000-0  26259-3 0  9994,2 55283  70.0027  39.1593 0002494 261.2552  98.8324 14.98329967 65859,6950.193,96.107,573.791,570.325,0.0
